[{"OBJECT_NAME":"ONEWEB-0259","OBJECT_ID":"2021-060L","EPOCH":"2026-06-02T03:02:19.923072","MEAN_MOTION":13.16593801,"ECCENTRICITY":0.0001968,"INCLINATION":87.9103,"RA_OF_ASC_NODE":231.7724,"ARG_OF_PERICENTER":106.1185,"MEAN_ANOMALY":254.0163,"EPHEMERIS_TYPE":0,"CLASSIFICATION_TYPE":"U","NORAD_CAT_ID":48977,"ELEMENT_SET_NO":999,"REV_AT_EPOCH":23764,"BSTAR":0.00035945,"MEAN_MOTION_DOT":1.5e-06,"MEAN_MOTION_DDOT":0.0},{"OBJECT_NAME":"ONEWEB-0260","OBJECT_ID":"2021-060M","EPOCH":"2026-06-02T04:39:12.532320","MEAN_MOTION":13.16593367,"ECCENTRICITY":0.00022,"INCLINATION":87.9099,"RA_OF_ASC_NODE":231.7615,"ARG_OF_PERICENTER":89.6031,"MEAN_ANOMALY":270.5352,"EPHEMERIS_TYPE":0,"CLASSIFICATION_TYPE":"U","NORAD_CAT_ID":48978,"ELEMENT_SET_NO":999,"REV_AT_EPOCH":23763,"BSTAR":0.00022292000000000001,"MEAN_MOTION_DOT":9.8e-07,"MEAN_MOTION_DDOT":0.0},{"OBJECT_NAME":"ONEWEB-0261","OBJECT_ID":"2021-060N","EPOCH":"2026-06-02T03:55:53.716224","MEAN_MOTION":13.16595805,"ECCENTRICITY":0.0001793,"INCLINATION":87.9103,"RA_OF_ASC_NODE":231.7667,"ARG_OF_PERICENTER":91.4821,"MEAN_ANOMALY":268.6516,"EPHEMERIS_TYPE":0,"CLASSIFICATION_TYPE":"U","NORAD_CAT_ID":48979,"ELEMENT_SET_NO":999,"REV_AT_EPOCH":23768,"BSTAR":0.00029118,"MEAN_MOTION_DOT":1.24e-06,"MEAN_MOTION_DDOT":0.0},{"OBJECT_NAME":"ONEWEB-0262","OBJECT_ID":"2021-060P","EPOCH":"2026-06-02T03:27:24.452064","MEAN_MOTION":13.16593879,"ECCENTRICITY":0.0001864,"INCLINATION":87.9104,"RA_OF_ASC_NODE":231.7567,"ARG_OF_PERICENTER":106.534,"MEAN_ANOMALY":253.5996,"EPHEMERIS_TYPE":0,"CLASSIFICATION_TYPE":"U","NORAD_CAT_ID":48980,"ELEMENT_SET_NO":999,"REV_AT_EPOCH":23764,"BSTAR":0.00012533,"MEAN_MOTION_DOT":6.1e-07,"MEAN_MOTION_DDOT":0.0},{"OBJECT_NAME":"ONEWEB-0263","OBJECT_ID":"2021-060Q","EPOCH":"2026-06-02T04:13:00.244992","MEAN_MOTION":13.16593839,"ECCENTRICITY":0.0001691,"INCLINATION":87.9104,"RA_OF_ASC_NODE":231.7619,"ARG_OF_PERICENTER":96.8333,"MEAN_ANOMALY":263.2991,"EPHEMERIS_TYPE":0,"CLASSIFICATION_TYPE":"U","NORAD_CAT_ID":48981,"ELEMENT_SET_NO":999,"REV_AT_EPOCH":23761,"BSTAR":2.7361000000000005e-05,"MEAN_MOTION_DOT":2.3e-07,"MEAN_MOTION_DDOT":0.0},{"OBJECT_NAME":"ONEWEB-0264","OBJECT_ID":"2021-060R","EPOCH":"2026-06-02T03:17:09.278880","MEAN_MOTION":13.16594284,"ECCENTRICITY":0.0001993,"INCLINATION":87.9105,"RA_OF_ASC_NODE":231.7728,"ARG_OF_PERICENTER":93.0227,"MEAN_ANOMALY":267.1132,"EPHEMERIS_TYPE":0,"CLASSIFICATION_TYPE":"U","NORAD_CAT_ID":48982,"ELEMENT_SET_NO":999,"REV_AT_EPOCH":23761,"BSTAR":0.00041402,"MEAN_MOTION_DOT":1.71e-06,"MEAN_MOTION_DDOT":0.0},{"OBJECT_NAME":"ONEWEB-0266","OBJECT_ID":"2021-060T","EPOCH":"2026-06-02T03:47:55.111200","MEAN_MOTION":13.1659343,"ECCENTRICITY":0.0002087,"INCLINATION":87.9106,"RA_OF_ASC_NODE":231.7587,"ARG_OF_PERICENTER":101.1983,"MEAN_ANOMALY":258.9383,"EPHEMERIS_TYPE":0,"CLASSIFICATION_TYPE":"U","NORAD_CAT_ID":48984,"ELEMENT_SET_NO":999,"REV_AT_EPOCH":23760,"BSTAR":6.4014e-05,"MEAN_MOTION_DOT":3.7e-07,"MEAN_MOTION_DDOT":0.0},{"OBJECT_NAME":"ONEWEB-0267","OBJECT_ID":"2021-060U","EPOCH":"2026-06-02T04:03:53.067744","MEAN_MOTION":13.16594229,"ECCENTRICITY":0.0001977,"INCLINATION":87.9111,"RA_OF_ASC_NODE":231.7529,"ARG_OF_PERICENTER":91.9976,"MEAN_ANOMALY":268.1381,"EPHEMERIS_TYPE":0,"CLASSIFICATION_TYPE":"U","NORAD_CAT_ID":48985,"ELEMENT_SET_NO":999,"REV_AT_EPOCH":23761,"BSTAR":0.00065872,"MEAN_MOTION_DOT":2.65e-06,"MEAN_MOTION_DDOT":0.0},{"OBJECT_NAME":"ONEWEB-0268","OBJECT_ID":"2021-060V","EPOCH":"2026-06-02T03:18:17.290368","MEAN_MOTION":13.16595487,"ECCENTRICITY":0.0002097,"INCLINATION":87.9106,"RA_OF_ASC_NODE":231.7691,"ARG_OF_PERICENTER":96.2962,"MEAN_ANOMALY":263.8408,"EPHEMERIS_TYPE":0,"CLASSIFICATION_TYPE":"U","NORAD_CAT_ID":48986,"ELEMENT_SET_NO":999,"REV_AT_EPOCH":23787,"BSTAR":0.00013700000000000002,"MEAN_MOTION_DOT":6.5e-07,"MEAN_MOTION_DDOT":0.0},{"OBJECT_NAME":"ONEWEB-0269","OBJECT_ID":"2021-060W","EPOCH":"2026-06-02T04:40:21.793152","MEAN_MOTION":13.16593107,"ECCENTRICITY":0.0002216,"INCLINATION":87.9094,"RA_OF_ASC_NODE":231.7616,"ARG_OF_PERICENTER":98.8318,"MEAN_ANOMALY":261.3064,"EPHEMERIS_TYPE":0,"CLASSIFICATION_TYPE":"U","NORAD_CAT_ID":48987,"ELEMENT_SET_NO":999,"REV_AT_EPOCH":23765,"BSTAR":0.00020008000000000002,"MEAN_MOTION_DOT":8.9e-07,"MEAN_MOTION_DDOT":0.0},{"OBJECT_NAME":"ONEWEB-0270","OBJECT_ID":"2021-060X","EPOCH":"2026-06-02T03:16:00.552000","MEAN_MOTION":13.1659367,"ECCENTRICITY":0.000167,"INCLINATION":87.9107,"RA_OF_ASC_NODE":231.7712,"ARG_OF_PERICENTER":103.4057,"MEAN_ANOMALY":256.726,"EPHEMERIS_TYPE":0,"CLASSIFICATION_TYPE":"U","NORAD_CAT_ID":48988,"ELEMENT_SET_NO":999,"REV_AT_EPOCH":23768,"BSTAR":0.00032007000000000004,"MEAN_MOTION_DOT":1.35e-06,"MEAN_MOTION_DDOT":0.0},{"OBJECT_NAME":"ONEWEB-0271","OBJECT_ID":"2021-060Y","EPOCH":"2026-06-01T16:01:09.247296","MEAN_MOTION":13.1659333,"ECCENTRICITY":0.0001751,"INCLINATION":87.9105,"RA_OF_ASC_NODE":231.8544,"ARG_OF_PERICENTER":97.4385,"MEAN_ANOMALY":262.6945,"EPHEMERIS_TYPE":0,"CLASSIFICATION_TYPE":"U","NORAD_CAT_ID":48989,"ELEMENT_SET_NO":999,"REV_AT_EPOCH":23762,"BSTAR":3.4865000000000006e-05,"MEAN_MOTION_DOT":2.6e-07,"MEAN_MOTION_DDOT":0.0},{"OBJECT_NAME":"ONEWEB-0272","OBJECT_ID":"2021-060Z","EPOCH":"2026-06-02T03:29:40.325568","MEAN_MOTION":13.16596299,"ECCENTRICITY":0.0001976,"INCLINATION":87.911,"RA_OF_ASC_NODE":231.7704,"ARG_OF_PERICENTER":89.3188,"MEAN_ANOMALY":270.8169,"EPHEMERIS_TYPE":0,"CLASSIFICATION_TYPE":"U","NORAD_CAT_ID":48990,"ELEMENT_SET_NO":999,"REV_AT_EPOCH":23763,"BSTAR":-6.252200000000001e-05,"MEAN_MOTION_DOT":-1.1e-07,"MEAN_MOTION_DDOT":0.0},{"OBJECT_NAME":"ONEWEB-0273","OBJECT_ID":"2021-060AA","EPOCH":"2026-06-02T04:01:36.397632","MEAN_MOTION":13.16593991,"ECCENTRICITY":0.0001872,"INCLINATION":87.9107,"RA_OF_ASC_NODE":231.7657,"ARG_OF_PERICENTER":99.7985,"MEAN_ANOMALY":260.3358,"EPHEMERIS_TYPE":0,"CLASSIFICATION_TYPE":"U","NORAD_CAT_ID":48991,"ELEMENT_SET_NO":999,"REV_AT_EPOCH":23761,"BSTAR":8.0733e-05,"MEAN_MOTION_DOT":4.4e-07,"MEAN_MOTION_DDOT":0.0},{"OBJECT_NAME":"ONEWEB-0274","OBJECT_ID":"2021-060AB","EPOCH":"2026-06-02T04:38:03.932448","MEAN_MOTION":13.16592904,"ECCENTRICITY":0.0002094,"INCLINATION":87.9096,"RA_OF_ASC_NODE":231.7644,"ARG_OF_PERICENTER":90.3577,"MEAN_ANOMALY":269.7794,"EPHEMERIS_TYPE":0,"CLASSIFICATION_TYPE":"U","NORAD_CAT_ID":48992,"ELEMENT_SET_NO":999,"REV_AT_EPOCH":23765,"BSTAR":0.0002377,"MEAN_MOTION_DOT":1.04e-06,"MEAN_MOTION_DDOT":0.0},{"OBJECT_NAME":"ONEWEB-0275","OBJECT_ID":"2021-060AC","EPOCH":"2026-06-02T04:22:07.555296","MEAN_MOTION":13.16593557,"ECCENTRICITY":0.000201,"INCLINATION":87.9105,"RA_OF_ASC_NODE":231.7546,"ARG_OF_PERICENTER":95.7795,"MEAN_ANOMALY":264.3566,"EPHEMERIS_TYPE":0,"CLASSIFICATION_TYPE":"U","NORAD_CAT_ID":48993,"ELEMENT_SET_NO":999,"REV_AT_EPOCH":23758,"BSTAR":5.7144e-05,"MEAN_MOTION_DOT":3.5e-07,"MEAN_MOTION_DDOT":0.0}]