ONEWEB-0259             
1 48977U 21060L   26153.12661948  .00000150  00000+0  35945-3 0  9992
2 48977  87.9103 231.7724 0001968 106.1185 254.0163 13.16593801237647
ONEWEB-0260             
1 48978U 21060M   26153.19389505  .00000098  00000+0  22292-3 0  9998
2 48978  87.9099 231.7615 0002200  89.6031 270.5352 13.16593367237635
ONEWEB-0261             
1 48979U 21060N   26153.16381616  .00000124  00000+0  29118-3 0  9995
2 48979  87.9103 231.7667 0001793  91.4821 268.6516 13.16595805237687
ONEWEB-0262             
1 48980U 21060P   26153.14403301  .00000061  00000+0  12533-3 0  9994
2 48980  87.9104 231.7567 0001864 106.5340 253.5996 13.16593879237642
ONEWEB-0263             
1 48981U 21060Q   26153.17569728  .00000023  00000+0  27361-4 0  9998
2 48981  87.9104 231.7619 0001691  96.8333 263.2991 13.16593839237618
ONEWEB-0264             
1 48982U 21060R   26153.13691295  .00000171  00000+0  41402-3 0  9995
2 48982  87.9105 231.7728 0001993  93.0227 267.1132 13.16594284237612
ONEWEB-0266             
1 48984U 21060T   26153.15827675  .00000037  00000+0  64014-4 0  9998
2 48984  87.9106 231.7587 0002087 101.1983 258.9383 13.16593430237600
ONEWEB-0267             
1 48985U 21060U   26153.16936421  .00000265  00000+0  65872-3 0  9995
2 48985  87.9111 231.7529 0001977  91.9976 268.1381 13.16594229237617
ONEWEB-0268             
1 48986U 21060V   26153.13770012  .00000065  00000+0  13700-3 0  9996
2 48986  87.9106 231.7691 0002097  96.2962 263.8408 13.16595487237876
ONEWEB-0269             
1 48987U 21060W   26153.19469668  .00000089  00000+0  20008-3 0  9990
2 48987  87.9094 231.7616 0002216  98.8318 261.3064 13.16593107237650
ONEWEB-0270             
1 48988U 21060X   26153.13611750  .00000135  00000+0  32007-3 0  9990
2 48988  87.9107 231.7712 0001670 103.4057 256.7260 13.16593670237683
ONEWEB-0271             
1 48989U 21060Y   26152.66746814  .00000026  00000+0  34865-4 0  9992
2 48989  87.9105 231.8544 0001751  97.4385 262.6945 13.16593330237625
ONEWEB-0272             
1 48990U 21060Z   26153.14560562 -.00000011  00000+0 -62522-4 0  9999
2 48990  87.9110 231.7704 0001976  89.3188 270.8169 13.16596299237637
ONEWEB-0273             
1 48991U 21060AA  26153.16778238  .00000044  00000+0  80733-4 0  9991
2 48991  87.9107 231.7657 0001872  99.7985 260.3358 13.16593991237614
ONEWEB-0274             
1 48992U 21060AB  26153.19310107  .00000104  00000+0  23770-3 0  9996
2 48992  87.9096 231.7644 0002094  90.3577 269.7794 13.16592904237653
ONEWEB-0275             
1 48993U 21060AC  26153.18203189  .00000035  00000+0  57144-4 0  9993
2 48993  87.9105 231.7546 0002010  95.7795 264.3566 13.16593557237580
